{"type": "FeatureCollection", "features": [ {"type": "Feature", "properties": {"norad_id": 30613, "name": "FENGYUN 1C DEB", "group": "fengyun-1c-debris", "lat": -52.91312554447432, "lon": -68.4739968948911, "alt_km": 530.5269836090965, "timestamp": "2025-12-27T11:23:20.175111+00:00", "meta": {"OBJECT_NAME": "FENGYUN 1C DEB", "OBJECT_ID": "1999-025AMU", "EPOCH": "2025-12-27T00:53:28.693824", "MEAN_MOTION": 15.20170247, "ECCENTRICITY": 0.0059141, "INCLINATION": 98.3082, "RA_OF_ASC_NODE": 122.1907, "ARG_OF_PERICENTER": 117.719, "MEAN_ANOMALY": 243.0059, "EPHEMERIS_TYPE": 0, "CLASSIFICATION_TYPE": "U", "NORAD_CAT_ID": 30613, "ELEMENT_SET_NO": 999, "REV_AT_EPOCH": 99613, "BSTAR": 0.0054752, "MEAN_MOTION_DOT": 0.0012603, "MEAN_MOTION_DDOT": 0}, "tle": {"line1": "1 30613U 99025AMU 25361.03713766  .00126030  00000+0  54752-2 0  9994", "line2": "2 30613  98.3082 122.1907 0059141 117.7190 243.0059 15.20170247996133"}}, "geometry": {"type": "Point", "coordinates": [-68.4739968948911, -52.91312554447432]}}, {"type": "Feature", "properties": {"norad_id": 30616, "name": "FENGYUN 1C DEB", "group": "fengyun-1c-debris", "lat": 9.159339590985832, "lon": 56.056311730544316, "alt_km": 1371.5421244229747, "timestamp": "2025-12-27T11:23:20.175121+00:00", "meta": {"OBJECT_NAME": "FENGYUN 1C DEB", "OBJECT_ID": "1999-025AMX", "EPOCH": "2025-12-25T14:24:23.518080", "MEAN_MOTION": 13.36050195, "ECCENTRICITY": 0.0381656, "INCLINATION": 98.6413, "RA_OF_ASC_NODE": 55.869, "ARG_OF_PERICENTER": 223.7679, "MEAN_ANOMALY": 133.261, "EPHEMERIS_TYPE": 0, "CLASSIFICATION_TYPE": "U", "NORAD_CAT_ID": 30616, "ELEMENT_SET_NO": 999, "REV_AT_EPOCH": 91872, "BSTAR": 0.0017371, "MEAN_MOTION_DOT": 1.313e-05, "MEAN_MOTION_DDOT": 0}, "tle": {"line1": "1 30616U 99025AMX 25359.60027220  .00001313  00000+0  17371-2 0  9992", "line2": "2 30616  98.6413  55.8690 0381656 223.7679 133.2610 13.36050195918723"}}, "geometry": {"type": "Point", "coordinates": [56.056311730544316, 9.159339590985832]}}, {"type": "Feature", "properties": {"norad_id": 30619, "name": "FENGYUN 1C DEB", "group": "fengyun-1c-debris", "lat": 49.17967521863112, "lon": -146.2965213834095, "alt_km": 814.7088714960873, "timestamp": "2025-12-27T11:23:20.175131+00:00", "meta": {"OBJECT_NAME": "FENGYUN 1C DEB", "OBJECT_ID": "1999-025ANA", "EPOCH": "2025-12-26T08:08:24.002016", "MEAN_MOTION": 14.41128934, "ECCENTRICITY": 0.0215168, "INCLINATION": 98.2945, "RA_OF_ASC_NODE": 22.8779, "ARG_OF_PERICENTER": 17.5434, "MEAN_ANOMALY": 343.3041, "EPHEMERIS_TYPE": 0, "CLASSIFICATION_TYPE": "U", "NORAD_CAT_ID": 30619, "ELEMENT_SET_NO": 999, "REV_AT_EPOCH": 99145, "BSTAR": 0.00032611, "MEAN_MOTION_DOT": 1.333e-05, "MEAN_MOTION_DDOT": 0}, "tle": {"line1": "1 30619U 99025ANA 25360.33916669  .00001333  00000+0  32611-3 0  9998", "line2": "2 30619  98.2945  22.8779 0215168  17.5434 343.3041 14.41128934991453"}}, "geometry": {"type": "Point", "coordinates": [-146.2965213834095, 49.17967521863112]}}, {"type": "Feature", "properties": {"norad_id": 30621, "name": "FENGYUN 1C DEB", "group": "fengyun-1c-debris", "lat": -59.27441900140949, "lon": -40.80667424748935, "alt_km": 805.0277768815004, "timestamp": "2025-12-27T11:23:20.175141+00:00", "meta": {"OBJECT_NAME": "FENGYUN 1C DEB", "OBJECT_ID": "1999-025ANC", "EPOCH": "2025-12-24T07:27:03.076992", "MEAN_MOTION": 14.03900271, "ECCENTRICITY": 0.01363988, "INCLINATION": 98.6975, "RA_OF_ASC_NODE": 301.2402, "ARG_OF_PERICENTER": 274.3159, "MEAN_ANOMALY": 241.7775, "EPHEMERIS_TYPE": 0, "CLASSIFICATION_TYPE": "U", "NORAD_CAT_ID": 30621, "ELEMENT_SET_NO": 999, "REV_AT_EPOCH": 95752, "BSTAR": 0.0022507606, "MEAN_MOTION_DOT": 3.816e-05, "MEAN_MOTION_DDOT": 0}, "tle": {"line1": "1 30621U 99025ANC 25358.31045228  .00003816  00000+0  22508-2 0  9991", "line2": "2 30621  98.6975 301.2402 0136398 274.3159 241.7775 14.03900271957529"}}, "geometry": {"type": "Point", "coordinates": [-40.80667424748935, -59.27441900140949]}}, {"type": "Feature", "properties": {"norad_id": 30622, "name": "FENGYUN 1C DEB", "group": "fengyun-1c-debris", "lat": -23.359343861821056, "lon": -167.91872177447658, "alt_km": 825.944665898739, "timestamp": "2025-12-27T11:23:20.175151+00:00", "meta": {"OBJECT_NAME": "FENGYUN 1C DEB", "OBJECT_ID": "1999-025AND", "EPOCH": "2025-12-23T20:00:58.826016", "MEAN_MOTION": 14.31388151, "ECCENTRICITY": 0.0072428, "INCLINATION": 101.0013, "RA_OF_ASC_NODE": 12.3003, "ARG_OF_PERICENTER": 344.4391, "MEAN_ANOMALY": 189.7638, "EPHEMERIS_TYPE": 0, "CLASSIFICATION_TYPE": "U", "NORAD_CAT_ID": 30622, "ELEMENT_SET_NO": 999, "REV_AT_EPOCH": 68956, "BSTAR": 0.0030539544, "MEAN_MOTION_DOT": 8.28e-05, "MEAN_MOTION_DDOT": 0}, "tle": {"line1": "1 30622U 99025AND 25357.83401419  .00008280  00000+0  30540-2 0  9991", "line2": "2 30622 101.0013  12.3003 0072428 344.4391 189.7638 14.31388151689562"}}, "geometry": {"type": "Point", "coordinates": [-167.91872177447658, -23.359343861821056]}}, {"type": "Feature", "properties": {"norad_id": 30623, "name": "FENGYUN 1C DEB", "group": "fengyun-1c-debris", "lat": 35.707225993489686, "lon": 171.689370415867, "alt_km": 894.1635982627304, "timestamp": "2025-12-27T11:23:20.175162+00:00", "meta": {"OBJECT_NAME": "FENGYUN 1C DEB", "OBJECT_ID": "1999-025ANE", "EPOCH": "2025-12-26T23:18:06.344064", "MEAN_MOTION": 13.29350601, "ECCENTRICITY": 0.0403702, "INCLINATION": 98.823, "RA_OF_ASC_NODE": 177.6669, "ARG_OF_PERICENTER": 72.676, "MEAN_ANOMALY": 77.2412, "EPHEMERIS_TYPE": 0, "CLASSIFICATION_TYPE": "U", "NORAD_CAT_ID": 30623, "ELEMENT_SET_NO": 999, "REV_AT_EPOCH": 91405, "BSTAR": 0.00065624, "MEAN_MOTION_DOT": 4.43e-06, "MEAN_MOTION_DDOT": 0}, "tle": {"line1": "1 30623U 99025ANE 25360.97090676  .00000443  00000+0  65624-3 0  9995", "line2": "2 30623  98.8230 177.6669 0403702  72.6760  77.2412 13.29350601914054"}}, "geometry": {"type": "Point", "coordinates": [171.689370415867, 35.707225993489686]}}, {"type": "Feature", "properties": {"norad_id": 30624, "name": "FENGYUN 1C DEB", "group": "fengyun-1c-debris", "lat": -16.945200229831745, "lon": 87.32246126971438, "alt_km": 695.7510407046302, "timestamp": "2025-12-27T11:23:20.175172+00:00", "meta": {"OBJECT_NAME": "FENGYUN 1C DEB", "OBJECT_ID": "1999-025ANF", "EPOCH": "2025-12-26T04:16:43.874112", "MEAN_MOTION": 14.62901245, "ECCENTRICITY": 0.00236378, "INCLINATION": 98.8856, "RA_OF_ASC_NODE": 83.1957, "ARG_OF_PERICENTER": 231.0937, "MEAN_ANOMALY": 128.8155, "EPHEMERIS_TYPE": 0, "CLASSIFICATION_TYPE": "U", "NORAD_CAT_ID": 30624, "ELEMENT_SET_NO": 999, "REV_AT_EPOCH": 97692, "BSTAR": 0.0045630657, "MEAN_MOTION_DOT": 0.00023454, "MEAN_MOTION_DDOT": 0}, "tle": {"line1": "1 30624U 99025ANF 25360.17828558  .00023454  00000+0  45631-2 0  9998", "line2": "2 30624  98.8856  83.1957 0023637 231.0937 128.8155 14.62901245976927"}}, "geometry": {"type": "Point", "coordinates": [87.32246126971438, -16.945200229831745]}}, {"type": "Feature", "properties": {"norad_id": 30625, "name": "FENGYUN 1C DEB", "group": "fengyun-1c-debris", "lat": -80.94660634041092, "lon": 57.50871615459821, "alt_km": 726.1110009526483, "timestamp": "2025-12-27T11:23:20.175182+00:00", "meta": {"OBJECT_NAME": "FENGYUN 1C DEB", "OBJECT_ID": "1999-025ANG", "EPOCH": "2025-12-26T20:49:17.756832", "MEAN_MOTION": 14.41869406, "ECCENTRICITY": 0.00476583, "INCLINATION": 98.9278, "RA_OF_ASC_NODE": 317.463, "ARG_OF_PERICENTER": 260.4116, "MEAN_ANOMALY": 99.1685, "EPHEMERIS_TYPE": 0, "CLASSIFICATION_TYPE": "U", "NORAD_CAT_ID": 30625, "ELEMENT_SET_NO": 999, "REV_AT_EPOCH": 96896, "BSTAR": 0.0042408702, "MEAN_MOTION_DOT": 0.00014044, "MEAN_MOTION_DDOT": 0}, "tle": {"line1": "1 30625U 99025ANG 25360.86756663  .00014044  00000+0  42409-2 0  9997", "line2": "2 30625  98.9278 317.4630 0047658 260.4116  99.1685 14.41869406968964"}}, "geometry": {"type": "Point", "coordinates": [57.50871615459821, -80.94660634041092]}}, {"type": "Feature", "properties": {"norad_id": 30628, "name": "FENGYUN 1C DEB", "group": "fengyun-1c-debris", "lat": -43.34639570785346, "lon": -71.76059353825568, "alt_km": 676.5284734649731, "timestamp": "2025-12-27T11:23:20.175192+00:00", "meta": {"OBJECT_NAME": "FENGYUN 1C DEB", "OBJECT_ID": "1999-025ANK", "EPOCH": "2025-12-26T17:36:49.255488", "MEAN_MOTION": 14.69456171, "ECCENTRICITY": 0.00218645, "INCLINATION": 99.3394, "RA_OF_ASC_NODE": 278.4571, "ARG_OF_PERICENTER": 200.3837, "MEAN_ANOMALY": 159.6494, "EPHEMERIS_TYPE": 0, "CLASSIFICATION_TYPE": "U", "NORAD_CAT_ID": 30628, "ELEMENT_SET_NO": 999, "REV_AT_EPOCH": 98676, "BSTAR": 0.0027421358, "MEAN_MOTION_DOT": 0.00016275, "MEAN_MOTION_DDOT": 0}, "tle": {"line1": "1 30628U 99025ANK 25360.73390342  .00016275  00000+0  27421-2 0  9999", "line2": "2 30628  99.3394 278.4571 0021864 200.3837 159.6494 14.69456171986764"}}, "geometry": {"type": "Point", "coordinates": [-71.76059353825568, -43.34639570785346]}}, {"type": "Feature", "properties": {"norad_id": 30629, "name": "FENGYUN 1C DEB", "group": "fengyun-1c-debris", "lat": -35.18845841030809, "lon": 105.69259671768847, "alt_km": 704.290838467241, "timestamp": "2025-12-27T11:23:20.175203+00:00", "meta": {"OBJECT_NAME": "FENGYUN 1C DEB", "OBJECT_ID": "1999-025ANL", "EPOCH": "2025-12-27T00:51:26.599392", "MEAN_MOTION": 14.59961312, "ECCENTRICITY": 0.0007266, "INCLINATION": 99.2499, "RA_OF_ASC_NODE": 98.6051, "ARG_OF_PERICENTER": 166.2911, "MEAN_ANOMALY": 13.0255, "EPHEMERIS_TYPE": 0, "CLASSIFICATION_TYPE": "U", "NORAD_CAT_ID": 30629, "ELEMENT_SET_NO": 999, "REV_AT_EPOCH": 98098, "BSTAR": 0.0037041, "MEAN_MOTION_DOT": 0.00017755, "MEAN_MOTION_DDOT": 0}, "tle": {"line1": "1 30629U 99025ANL 25361.03572453  .00017755  00000+0  37041-2 0  9992", "line2": "2 30629  99.2499  98.6051 0007266 166.2911  13.0255 14.59961312980981"}}, "geometry": {"type": "Point", "coordinates": [105.69259671768847, -35.18845841030809]}}]}